{"fetched_at":"2026-03-29T16:36:15Z","count":15609,"tles":[{"name":"STARLINK-35833","line1":"1 66542U 25265AC  26087.62298015  .00016446  00000+0  60569-3 0  9998","line2":"2 66542  43.0036 171.4755 0000090 226.2666 133.8178 15.27587572 20002","category":"Starlink"}]}