{
  "norad_id": 66542,
  "name": "STARLINK-35833",
  "history": [
    {
      "epoch": "2026-03-28T14:57:05.484960Z",
      "apogee_km": 483.0881733121023,
      "perigee_km": 482.9646723704909,
      "latitude_deg": -1.4583585858910675e-05,
      "longitude_deg": 121.16185737576365,
      "height_km": 482.8449815089685,
      "semi_major_axis_km": 6861.163422841297,
      "eccentricity": 9e-06,
      "inclination_deg": 43.0036,
      "raan_deg": 171.4755,
      "arg_perigee_deg": 226.2666,
      "mean_anomaly_deg": 133.8178,
      "mean_motion_rev_day": 15.27587572
    }
  ]
}